#dP2024  2  4  0  0  0.00000000      96 __u+U IGS20 EXT  IAC
## 2300      0.00000000   900.00000000 60344 0.0000000000000
+  120   C06C07C08C09C10C11C12C13C14C16C19C20C21C22C23C24C25
+        C26C27C28C29C30C32C33C34C35C36C37C38C39C40C41C42C43
+        C44C45C46E02E03E04E05E07E08E09E10E11E12E13E14E15E18
+        E19E21E24E25E26E27E30E31E33E34E36G01G02G03G04G05G06
+        G07G08G09G10G11G12G13G14G15G16G17G18G19G20G21G22G23
+        G24G25G26G27G28G29G30G31G32J02J03J04R01R02R03R04R05
+        R07R08R09R11R12R13R14R15R16R17R18R19R20R21R22R24R25
+        R26  0  0  0  0  0  0  0  0  0  0  0  0  0  0  0  0
++        11 10 10 11 10  9 13  0  9 11  7  9  8  7 10  9  9
++         8  8 10  7  7  8  9  9  7  6  8 11 11 11 10  8  8
++         8  8  9  7  7  7  7  7  7  7  7  7  7  7  8  7  7
++         7  8  8  7  7  8  7  8  6  7  8  8  8  7  9  6  7
++         7  8  8  8  7  7  8  8  8  7  7  8  8  7  9  6  8
++         7  7  7  7  7  7  7  7  8  9 10 12 10  9  8  8  7
++         7  8  7  9  8  9  8  7  9  8  8  8  9  8  9  8  8
++         8  0  0  0  0  0  0  0  0  0  0  0  0  0  0  0  0
%c M  cc GPS ccc cccc cccc cccc cccc ccccc ccccc ccccc ccccc
%c cc cc ccc ccc cccc cccc cccc cccc ccccc ccccc ccccc ccccc
%f  0.0000000  0.000000000  0.00000000000  0.000000000000000
%f  0.0000000  0.000000000  0.00000000000  0.000000000000000
%i    0    0    0    0      0      0      0      0         0
%i    0    0    0    0      0      0      0      0         0
/* IAC                                ULTRA-RAPID PREDICTION
/* S/V CLOCKS ARE ALIGNED TO GNSS TIME                      
/* G:C1WC2W R:C1PC2P E:C1XC5X C:C2IC6I J:C1CC2S             
/* PCV:IGS20_2290 OL/AL:FES2004  NONE     YN ORB:CoN CLK:CoN
*  2024 02 04  7 15  0.00000000
PC06 -13147.017270  39895.174234   -110.985255     88.445628
PC07  -3157.134170  30335.282260  29258.409920   -745.924914
PC08 -17132.505623  22268.858574 -31511.580431     64.117760
PC09  -7488.369830  40018.493752  10044.621818   -443.420454
PC10   4246.889910  33041.277351  26455.044538     99.082574
PC11 -11780.747611  18628.673976  17190.078395    392.772969
PC12 -15433.408442  -2024.016287  23203.277165    778.450725
PC13  -7360.797212  23468.453325 -34129.772406    414.204747
PC14 -14968.076957   8679.618666 -21865.622620    113.927641
PC16 -13838.840521  39587.598454  -1449.421400   -319.764751
PC19   5641.756291 -14692.523083  23070.975419   -930.251803
PC20  20940.723077  -2482.065156  18306.628102   -129.566097
PC21 -24899.616708 -12422.048096  -1927.625121   -962.847881
PC22 -13792.378831 -19191.689043  14821.844465   -122.539225
PC23   1854.129927  17288.091328  21822.885545   -783.798357
PC24 -25304.554881  10301.423934  -5779.544799    852.627427
PC25 -15627.282657  19913.381755  11756.142991    317.887252
PC26 -19806.037524  -3939.525124 -19296.623846   -244.297046
PC27  14540.311663  11854.964301 -20671.831764    266.300858
PC28   6689.130089  25445.702553  -9291.074168    202.389686
PC29   5934.131785 -25318.098733 -10138.091509    237.177601
PC30  14979.520971  -8706.634481 -21887.177819    -21.353940
PC32  25008.235748  12257.231551   1879.893330   -562.609808
PC33  -5620.903076  14705.988237 -23034.745070   -946.418376
PC34 -14618.075821  10358.014811  21378.362675    361.828382
PC35  -7618.347027 -25245.670863   9182.787886    441.672778
PC36  16507.632670 -19436.227809 -11308.662076    -27.514313
PC37  19332.671848   4806.413465  19532.702626   -934.292618
PC38 -24140.025909  23685.196489 -25206.934587    134.669268
PC39 -15923.686756  37772.914763  -9283.908669     -6.972452
PC40  -6768.171585  25299.045421  33098.143473    -54.993567
PC41  13182.920967  19181.419621 -15346.730293   -886.472439
PC42 -21876.770332   1258.087756 -17217.946733   -457.894864
PC43  -6579.443936  24820.995639  10886.023588     59.072367
PC44 -15055.095707 -11532.833438  20470.094550    374.139786
PC45  -2081.284297 -17061.629205 -21990.738884    -67.850608
PC46  25181.009364 -10939.730542   4859.064402   -121.056888
PE02  27021.329833  -5919.824760 -10515.656576    100.580337
PE03  15823.300948  -6262.688497  24216.469442    -91.529867
PE04  -1979.396475  23394.522731 -18017.734626   -319.283996
PE05  20244.475008  14263.855896  16215.141443   4716.761861
PE07 -12601.965731 -26724.558429   1735.005463   -101.960341
PE08   2430.039087 -22943.858657  18539.184935   -218.498458
PE09  12558.099839  26745.785143  -1852.957441   -323.726886
PE10  -5963.654435  25654.175178 -13507.776637   -599.306453
PE11   2828.273868  20738.189222 -20926.831705   3263.487941
PE12 -12920.410508  26164.269065  -4892.293818   -891.613673
PE13  -2208.226919 -21171.268643  20583.119607    -20.086131
PE14 -16849.982618  -1881.922332  17122.913017     29.637908
PE15  13256.327663 -26111.157099   4375.270436    -83.890876
PE18  22913.276146   8588.247754 -20572.258057    287.535140
PE19 -16801.270891   3709.788571 -24078.884658   -681.603312
PE21 -27919.557753  -6447.392172  -7449.692826   -577.273250
PE24  12027.612045  15812.183167  21912.227072   -579.227301
PE25  27754.354789   6681.991643   7800.518130      0.414990
PE26 -16604.875287  -3370.283598  24280.261601    358.798897
PE27 -12547.110846 -15639.116608 -21786.450631   -266.122966
PE30  10350.530748 -15473.279875 -23026.366365   -879.053751
PE31 -10066.501122  15506.930439  23117.381149    -15.234403
PE33 -20776.340995  15187.486823  14631.641541      7.047570
PE34  20704.488844 -15710.031833 -14163.402924    -92.726414
PE36  16138.532106   3925.963805 -24494.613661   -181.161265
PG01 -12135.700495  23188.968193  -3662.423374    168.239655
PG02 -15154.435629  20985.490668   5824.603963   -490.756289
PG03 -14726.883847  11982.970159 -18666.937717    170.957619
PG04  -5791.627020  17741.470898 -18830.351783    283.115776
PG05  24022.131864  -6675.687487   9110.450561   -160.504175
PG06  12479.335829   7483.439307 -22148.551239    420.299060
PG07  -1538.771568  22248.091460  14544.196075    -53.694817
PG08 -11841.411024   9887.866641  21495.624692   -165.378741
PG09   5612.782669  23981.726494  -9948.268993     80.739586
PG10 -18877.452033 -10953.332328  15566.993095    -71.959881
PG11  18409.225118  -4025.392399 -18673.131579   -563.975985
PG12  15775.204540 -11293.309478 -18395.622666   -474.591622
PG13  15696.262430    585.498441  21248.330342    622.315454
PG14  15196.426281  13360.524423  17322.302399    316.645029
PG15  10803.449248 -11364.387183  20934.928924    124.137995
PG16 -26528.899707   -680.276814   3475.826956   -370.100448
PG17  12620.864898  23077.939406  -2599.632947    718.026534
PG18   1556.872820 -21594.621960  15273.235910   -547.872809
PG19  16138.520106  17731.031743 -11998.294983    435.878248
PG20  26090.181717   -656.922665  -4367.294257    388.795318
PG21 -16835.791498  17158.862576  10602.275909    136.143552
PG22  20861.035280  11118.581461  12239.967298     36.906851
PG23  -6319.304949 -14455.123088  21420.196797    148.964908
PG24  15318.187612 -20325.124428   6393.374872   -425.926404
PG25   3482.432219 -15416.211033 -21660.162739    487.504245
PG26 -25359.842267  -4361.566180  -7453.971625    193.776319
PG27 -17527.361383  -3958.995688  19427.280588     -0.934099
PG28 -11431.456532 -10409.637700 -21617.608350   -119.740690
PG29  -2388.237711 -23980.812150 -11100.839439   -607.610598
PG30   7485.293701  15878.017140  19987.329377   -437.018378
PG31 -16990.524580   -765.810544 -20703.130475   -227.645992
PG32 -15885.373454 -20597.879932  -5692.419818   -609.641877
PJ02 -30529.181566  21836.320387  24294.569885     -1.690740
PJ03 -30582.808778  27087.502832  15686.530009     -0.215907
PJ04 -21798.385263  23362.866636 -22359.446519     79.135578
PR01  -7342.993205   8158.200724 -23021.021550     76.272620
PR02   8289.390500  17216.439772 -16812.089927    -22.439484
PR03  19368.984102  16520.886228   -897.963456     93.882527
PR04  19311.441247   7086.686663  15104.490803    221.956531
PR05   9039.646803  -6309.040593  23015.789535    126.381442
PR07 -19633.214805 -16329.955542    158.934104     75.059957
PR08 -19358.981824  -6808.471262 -15112.599554    -74.280305
PR09   3690.822716 -13090.952561 -21582.510928    168.092316
PR11 -23314.283851   4281.447039  -9398.054067     35.471835
PR12 -19829.183881  12650.577687   9908.970539     36.370119
PR13  -6360.122409  13273.767282  20813.087030    -44.005035
PR14  13759.995847   5482.444812  20775.366030     26.015954
PR15  23726.291979  -4892.934106   8002.922681     82.503797
PR16  19979.127600 -12624.319605  -9637.274492     23.015036
PR17   6365.943993  15234.900400 -19443.982960     58.325359
PR18  10903.803392  -2040.308704 -22955.547869    125.625773
PR19  10876.690717 -16655.378202 -15965.152331   -264.521454
PR20   3571.955708 -24948.381199   4106.219786   -107.756356
PR21  -6332.140686 -14935.367275  19681.452656    -74.248998
PR22 -11511.064271   2724.984679  22626.340828    106.427004
PR24  -2196.744211  24996.598761  -4591.533463    -42.538421
PR25  -6061.610689 -15387.515944  19422.487457     82.283294
PR26 -19670.470028  -7300.224073 -14468.675329   -200.077344
EOF
